NUSAT-1 (FRESCO)        
1 41557U 16033B   22136.10364676  .00014374  00000+0  44043-3 0  9998
2 41557  97.3858 233.7676 0012732 131.2017 349.0131 15.33820223332422
BEESAT-4                
1 41619U 16040W   22136.14834562  .00017900  00000+0  61473-3 0  9999
2 41619  97.2196 187.6554 0008818 220.9136 139.1444 15.30144496315788
CAS-2T & KS-1Q          
1 41847U 16066G   22136.20859933  .00000563  00000+0  95651-4 0  9999
2 41847  98.5525 200.9069 0363034 306.4520  50.3709 14.38540709289717
NAYIF-1 (EO-88)         
1 42017U 17008BX  22135.75615097  .00023802  00000+0  73565-3 0  9996
2 42017  97.2710 202.3644 0004699  23.5977 336.5480 15.33506313292062
ZHUHAI-1 02 (CAS-4B)    
1 42759U 17034B   22136.20283237  .00002805  00000+0  17498-3 0  9999
2 42759  43.0166 150.4332 0007519  80.5581   9.7074 15.11642210271477
ZHUHAI-1 01 (CAS-4A)    
1 42761U 17034D   22136.23418385  .00002907  00000+0  18039-3 0  9994
2 42761  43.0164 149.0696 0007884  83.1762 332.3127 15.11734975271485
MAX VALIER SAT          
1 42778U 17036P   22135.68385582  .00012829  00000+0  49432-3 0  9999
2 42778  97.2083 177.9171 0013023  85.9933 274.2794 15.26385700271909
RADFXSAT (FOX-1B)       
1 43017U 17073E   22135.94772924  .00005141  00000+0  39219-3 0  9997
2 43017  97.6789  31.4653 0247925 294.4783  63.0756 14.81192879242309
FOX-1D (AO-92)          
1 43137U 18004AC  22135.76793642  .00015360  00000+0  55192-3 0  9997
2 43137  97.3697 211.2310 0009403 116.5178 243.7027 15.28696748241352
DIWATA-2B               
1 43678U 18084H   22136.06011328  .00000969  00000+0  10102-3 0  9994
2 43678  97.9649 268.9563 0010709  39.1793 321.0220 14.92105501193025
ES'HAIL 2               
1 43700U 18090A   22136.15188213  .00000154  00000+0  00000+0 0  9993
2 43700   0.0571  98.9191 0002820 346.0899 229.3161  1.00273020 12942
FOX-1CLIFF (AO-95)      
1 43770U 18099N   22136.15822618  .00002757  00000+0  24872-3 0  9991
2 43770  97.6225 203.3468 0014861  29.9713 330.2356 14.96259002188187
ITASAT 1                
1 43786U 18099AE  22136.15488662  .00002582  00000+0  23222-3 0  9999
2 43786  97.6255 204.2441 0015401  23.2086 336.9828 14.96432787188224
JY1SAT (JO-97)          
1 43803U 18099AX  22136.18295306  .00003718  00000+0  32840-3 0  9991
2 43803  97.6203 204.0186 0014782  21.2461 338.9372 14.96877735188241
UWE-4                   
1 43880U 18111E   22136.00547062  .00004568  00000+0  39168-3 0  9995
2 43880  97.6701  42.8830 0013262  72.8324 287.4349 14.97937995182843
NEXUS (FO-99)           
1 43937U 19003F   22135.60554794  .00016809  00000+0  58044-3 0  9999
2 43937  97.1331 170.2474 0018893 269.9395  89.9681 15.29840769184958
PSAT2 (NO-104)          
1 44354U 19036R   22136.07807123  .00078773 -49971-5  76563-3 0  9999
2 44354  28.5284  42.0901 0246457 326.9062  31.6330 15.35066903159686
JAISAT-1                
1 44419U 19038F   22135.91970940  .00012139  00000+0  61884-3 0  9990
2 44419  97.6340 105.7982 0017544 241.4058 118.5410 15.16779009158122
DUCHIFAT-3              
1 44854U 19089C   22136.10977377  .00003766  00000+0  29657-3 0  9990
2 44854  36.9676 292.0630 0009519 319.4204  40.5846 15.00825912133077
CAS-6 (TO-108)          
1 44881U 19093C   22136.09622989  .00000535  00000+0  74645-4 0  9998
2 44881  97.8926 215.7685 0013697 294.0667  65.9122 14.81682593129983
RS-44 & BREEZE-KM R/B   
1 44909U 19096E   22135.82400493  .00000008  00000+0 -17239-4 0  9998
2 44909  82.5216 251.9484 0217876  36.2887 325.2768 12.79713136111332
ORBITAL FACTORY 2 (OF-2)
1 45113U 19071C   22135.63161931  .00035261  00000+0  77145-3 0  9998
2 45113  51.6394 220.6748 0010309  45.3502 314.8323 15.43751231128305
HUSKYSAT-1 (HO-107)     
1 45119U 19071J   22135.61978103  .00030642  00000+0  68864-3 0  9995
2 45119  51.6389 220.5738 0010164  43.0742 317.1038 15.43025347128292
BY70-2                  
1 45857U 20042B   22136.10060935  .00006478  00000+0  87638-3 0  9994
2 45857  97.9540 213.2589 0010177 211.0451 149.0289 14.79300665100673
SALSAT                  
1 46495U 20068K   22135.83868518  .00003832  00000+0  27844-3 0  9997
2 46495  97.7291  77.1362 0017549  33.1819 327.0504 15.04346736 89289
BY70-3                  
1 46839U 20079N   22136.17040734  .00022893  00000+0  56523-3 0  9995
2 46839  97.1997 208.7151 0007055  95.4731 327.3531 15.40489136 85271
RADFXSAT-2 (AO-109)     
1 47311U 21002C   22135.68705187  .00012088  00000+0  49447-3 0  9995
2 47311  60.6843 125.5444 0011661 295.6031  64.3852 15.24694627 73465
UVSQ-SAT                
1 47438U 21006AB  22135.66312956  .00009208  00000+0  49181-3 0  9990
2 47438  97.4397 195.3508 0012579  36.6417 323.5673 15.15265978 72310
DIY-1 (ARDUIQUBE)       
1 47963U 21022AH  22135.54299964  .00023791  00000+0  13676-2 0  9993
2 47963  97.5358  37.3044 0015110 243.1978 116.7708 15.12384853 61974
XW-3 (CAS-9)            
1 50466U 21131B   22136.03669485  .00000308  00000+0  11554-3 0  9993
2 50466  98.5807 213.3050 0003601 232.6610 127.4249 14.38483682 20259
